{
    "links": {
        "self": "http://www.neowsapp.com/rest/v1/neo/54087766?api_key=iIulBulltgU6a56xZRHN4H3l9WmuAYTsLGpBGhQ2"
    },
    "id": "54087766",
    "neo_reference_id": "54087766",
    "name": "(2020 VZ3)",
    "designation": "2020 VZ3",
    "nasa_jpl_url": "http://ssd.jpl.nasa.gov/sbdb.cgi?sstr=54087766",
    "absolute_magnitude_h": 23.21,
    "estimated_diameter": {
        "kilometers": {
            "estimated_diameter_min": 0.0606114923,
            "estimated_diameter_max": 0.1355314169
        },
        "meters": {
            "estimated_diameter_min": 60.6114922738,
            "estimated_diameter_max": 135.5314169419
        },
        "miles": {
            "estimated_diameter_min": 0.0376622236,
            "estimated_diameter_max": 0.0842152921
        },
        "feet": {
            "estimated_diameter_min": 198.8566083115,
            "estimated_diameter_max": 444.6568939595
        }
    },
    "is_potentially_hazardous_asteroid": false,
    "close_approach_data": [
        {
            "close_approach_date": "2020-10-29",
            "close_approach_date_full": "2020-Oct-29 22:35",
            "epoch_date_close_approach": 1604010900000,
            "relative_velocity": {
                "kilometers_per_second": "16.3424221802",
                "kilometers_per_hour": "58832.719848684",
                "miles_per_hour": "36556.364174867"
            },
            "miss_distance": {
                "astronomical": "0.1251338035",
                "lunar": "48.6770495615",
                "kilometers": "18719750.468598545",
                "miles": "11631913.562188121"
            },
            "orbiting_body": "Earth"
        }
    ],
    "orbital_data": {
        "orbit_id": "3",
        "orbit_determination_date": "2020-11-25 05:21:35",
        "first_observation_date": "2020-11-11",
        "last_observation_date": "2020-11-15",
        "data_arc_in_days": 4,
        "observations_used": 18,
        "orbit_uncertainty": "9",
        "minimum_orbit_intersection": ".057387",
        "jupiter_tisserand_invariant": "4.552",
        "epoch_osculation": "2459165.5",
        "eccentricity": ".2587374561874052",
        "semi_major_axis": "1.417775367817567",
        "inclination": "28.95443220549175",
        "ascending_node_longitude": "33.06323886612928",
        "orbital_period": "616.6085848177022",
        "perihelion_distance": "1.050943775703287",
        "perihelion_argument": "355.9550540977235",
        "aphelion_distance": "1.784606959931847",
        "perihelion_time": "2459151.232170139134",
        "mean_anomaly": "8.330112289030684",
        "mean_motion": ".5838387736791445",
        "equinox": "J2000",
        "orbit_class": {
            "orbit_class_type": "AMO",
            "orbit_class_description": "Near-Earth asteroid orbits similar to that of 1221 Amor",
            "orbit_class_range": "1.017 AU < q (perihelion) < 1.3 AU"
        }
    },
    "is_sentry_object": false
}